SPACEBEE-102            
1 48886U 21059H   23028.19067538  .00022836  00000+0  10150-2 0  9994
2 48886  97.5761 162.7351 0007974  42.8748 317.3108 15.21497711 88025
SPACEBEENZ-9            
1 48887U 21059J   23027.87462637  .00040359  00000+0  14807-2 0  9991
2 48887  97.5709 163.7680 0007070  30.8627 329.3026 15.27825941 88077
SPACEBEE-103            
1 48888U 21059K   23027.85913099  .00023006  00000+0  10081-2 0  9993
2 48888  97.5768 162.5757 0008219  40.8716 319.3134 15.21981334 87982
SPACEBEENZ-7            
1 48889U 21059L   23027.88111812  .00040509  00000+0  14753-2 0  9997
2 48889  97.5731 164.0647 0007595  30.9718 329.1967 15.28064089 88087
SPACEBEE-104            
1 48890U 21059M   23027.87768883  .00022242  00000+0  97038-3 0  9996
2 48890  97.5763 162.5099 0008244  43.8632 316.3257 15.22137827 87981
SPACEBEENZ-8            
1 48891U 21059N   23028.03316278  .00041132  00000+0  15101-2 0  9992
2 48891  97.5734 164.1749 0007644  30.6739 329.4945 15.27794198 88104
SPACEBEE-106            
1 48893U 21059Q   23027.87448372  .00021285  00000+0  94061-3 0  9996
2 48893  97.5786 162.6917 0008730  44.0232 316.1697 15.21705295 87983
SPACEBEE-107            
1 48894U 21059R   23028.36261096  .00022576  00000+0  97210-3 0  9991
2 48894  97.5788 163.4381 0008570  40.2662 319.9207 15.22579400 88074
SPACEBEE-108            
1 48895U 21059S   23027.87144957  .00021241  00000+0  93784-3 0  9993
2 48895  97.5780 162.6675 0008780  43.4976 316.6950 15.21734756 87984
SPACEBEE-105            
1 48896U 21059T   23027.90514842  .00023167  00000+0  10132-2 0  9996
2 48896  97.5763 162.4755 0008530  35.1747 325.0050 15.22043075 87983
SPACEBEE-109            
1 48897U 21059U   23027.86904254  .00023369  00000+0  10137-2 0  9991
2 48897  97.5788 162.8277 0008634  41.0058 319.1826 15.22319962 87997
SPACEBEE-110            
1 48899U 21059W   23028.17234082  .00023387  00000+0  10065-2 0  9993
2 48899  97.5790 163.3853 0009018  38.7593 321.4288 15.22585613 88056
SPACEBEE-111            
1 48904U 21059AB  23028.11536902  .00025411  00000+0  10727-2 0  9995
2 48904  97.5796 163.6649 0009698  37.7476 322.4439 15.23218423 88061
SPACEBEE-92             
1 48932U 21059BF  23028.34925069  .00194736  00000+0  30628-2 0  9996
2 48932  97.5532 169.6227 0011095 347.0404  13.0562 15.52856678 88534
SPACEBEE-89             
1 48933U 21059BG  23027.97077883  .00257768  00000+0  32875-2 0  9998
2 48933  97.5505 169.9393 0011015 344.9237  15.1689 15.58363580 88527
SPACEBEE-96             
1 48934U 21059BH  23028.17424587  .00159166  00000+0  28354-2 0  9999
2 48934  97.5552 168.9654 0011782 352.4614   7.6458 15.49462678 88475
SPACEBEE-88             
1 48935U 21059BJ  23028.37186009  .00330209  00000+0  35831-2 0  9993
2 48935  97.5471 170.5793 0013000 334.0119  26.0484 15.62354280 88603
SPACEBEE-99             
1 48936U 21059BK  23028.12170924  .00130815  00000+0  26479-2 0  9995
2 48936  97.5574 168.4514 0011321 359.5115   0.6121 15.45879536 88431
SPACEBEE-94             
1 48937U 21059BL  23028.36536439  .00178058  00000+0  28833-2 0  9996
2 48937  97.5523 169.4230 0012148 348.4560  11.6412 15.52088443 88523
SPACEBEE-93             
1 48939U 21059BN  23028.60314851  .00264368  00000+0  32215-2 0  9996
2 48939  97.5507 170.4746 0014217 333.9727  26.0812 15.59509094 88615
SPACEBEE-91             
1 48940U 21059BP  23028.11113732  .00232173  00000+0  31174-2 0  9991
2 48940  97.5515 169.9174 0010834 343.7340  16.3565 15.57069121 88533
SPACEBEE-95             
1 48945U 21059BU  23028.17958615  .00177880  00000+0  28845-2 0  9993
2 48945  97.5554 169.4207 0010492 346.7915  13.3061 15.52069444 88502
SPACEBEE-97             
1 48946U 21059BV  23028.35374633  .00128077  00000+0  24912-2 0  9991
2 48946  97.5563 168.8863 0010983   0.0878   0.0371 15.47056534 88481
SPACEBEE-90             
1 48947U 21059BW  23028.13644466  .00252802  00000+0  32839-2 0  9993
2 48947  97.5509 170.0283 0010904 343.9655  16.1253 15.57889758 88545
SPACEBEE-98             
1 48949U 21059BY  23027.95205005  .00128976  00000+0  25085-2 0  9995
2 48949  97.5614 168.5948 0011548 356.9772   3.1406 15.47048512 88420
SPACEBEE-121            
1 52009U 22026B   23028.43130710  .00021656  00000+0  95613-3 0  9998
2 52009  97.5075  31.3472 0023070 205.8056 154.2031 15.21522814 48312
SPACEBEE-114            
1 52010U 22026C   23028.00322913  .00023295  00000+0  10187-2 0  9994
2 52010  97.5106  31.0886 0022143 208.4730 151.5298 15.21852777 48266
SPACEBEE-126            
1 52011U 22026D   23028.00905019  .00024085  00000+0  10528-2 0  9996
2 52011  97.5087  31.0229 0022752 205.5177 154.4937 15.21848118 48250
SPACEBEE-118            
1 52012U 22026E   23028.00096316  .00023605  00000+0  10205-2 0  9997
2 52012  97.5097  31.2184 0021382 210.2100 149.7904 15.22256183 48270
SPACEBEE-120            
1 52013U 22026F   23028.03945045  .00022389  00000+0  97531-3 0  9999
2 52013  97.5085  31.1298 0023653 203.7504 156.2643 15.21960820 48262
SPACEBEE-122            
1 52014U 22026G   23027.89758569  .00024936  00000+0  10817-2 0  9997
2 52014  97.5082  31.0162 0022280 206.5378 153.4719 15.22110993 48244
SPACEBEE-119            
1 52015U 22026H   23027.90066654  .00024481  00000+0  10797-2 0  9999
2 52015  97.5095  30.9011 0023094 207.8739 152.1261 15.21533415 48233
SPACEBEE-115            
1 52016U 22026J   23027.59241764  .00023121  00000+0  10141-2 0  9995
2 52016  97.5103  30.7121 0022803 208.2508 151.7492 15.21739496 48193
SPACEBEENZ-14           
1 52018U 22026L   23027.53954248  .00031845  00000+0  13007-2 0  9995
2 52018  97.5083  31.0493 0021740 205.7026 154.3132 15.24105637 48214
SPACEBEENZ-11           
1 52019U 22026M   23027.96029950  .00032834  00000+0  13194-2 0  9992
2 52019  97.5077  31.5552 0021522 203.4543 156.5714 15.24651132 48245
SPACEBEE-127            
1 52020U 22026N   23027.94423828  .00022272  00000+0  98311-3 0  9994
2 52020  97.5090  30.9611 0022814 207.4274 152.5759 15.21530296 48194
SPACEBEE-125            
1 52021U 22026P   23027.90562949  .00023026  00000+0  98835-3 0  9998
2 52021  97.5079  31.1328 0024291 207.0404 152.9568 15.22442341 48121
SPACEBEE-117            
1 52022U 22026Q   23027.80112057  .00023170  00000+0  10187-2 0  9992
2 52022  97.5102  30.8944 0022922 207.4637 152.5389 15.21654845 48096
SPACEBEE-116            
1 52023U 22026R   23027.78041449  .00022104  00000+0  96830-3 0  9992
2 52023  97.5102  30.9258 0022660 207.6615 152.3417 15.21794735 48096
SPACEBEE-113            
1 52024U 22026S   23028.48751107  .00022603  00000+0  98087-3 0  9990
2 52024  97.5095  31.6509 0024544 202.1526 157.8651 15.22069647 48200
SPACEBEE-112            
1 52025U 22026T   23028.22418097  .00026047  00000+0  11017-2 0  9994
2 52025  97.5090  31.5359 0022401 204.7146 155.3019 15.22957188 48177
SPACEBEENZ-13           
1 52026U 22026U   23027.52867445  .00032417  00000+0  13183-2 0  9996
2 52026  97.5075  31.0585 0021669 205.6172 154.3993 15.24249896 47992
SPACEBEE-123            
1 52027U 22026V   23027.88745362  .00024160  00000+0  10635-2 0  9994
2 52027  97.5085  30.8653 0022867 207.6880 152.3140 15.21605615 48014
SPACEBEENZ-12           
1 52028U 22026W   23027.97383530  .00027675  00000+0  11494-2 0  9998
2 52028  97.5112  31.4475 0022104 204.7627 155.2551 15.23566962 48141
SPACEBEE-124            
1 52029U 22026X   23027.89656507  .00024144  00000+0  10647-2 0  9994
2 52029  97.5078  30.8481 0022842 207.8124 152.1892 15.21546020 46736
SPACEBEE-136            
1 52164U 22033H   23028.22296176  .00036959  00000+0  11824-2 0  9997
2 52164  97.3611 111.7768 0007630 307.6818  52.3731 15.32295580 45973
SPACEBEE-138            
1 52166U 22033K   23027.71922482  .00037112  00000+0  11939-2 0  9997
2 52166  97.3633 111.3202 0008672 299.9975  60.0406 15.32108605 45899
SPACEBEE-130            
1 52176U 22033V   23027.76158927  .00037885  00000+0  12088-2 0  9991
2 52176  97.3619 111.3619 0006003 305.9052  54.1632 15.32385961 45905
SPACEBEE-139            
1 52177U 22033W   23028.19703734  .00035463  00000+0  11626-2 0  9999
2 52177  97.3640 111.6094 0008478 304.8698  55.1746 15.31512604 45937
SPACEBEE-129            
1 52179U 22033Y   23028.21537373  .00034297  00000+0  11346-2 0  9991
2 52179  97.3623 111.5285 0007403 309.6442  50.4146 15.31235724 45935
SPACEBEE-134            
1 52180U 22033Z   23027.74378581  .00033596  00000+0  11293-2 0  9996
2 52180  97.3615 110.9241 0007583 311.1507  48.9079 15.30722513 45878
SPACEBEE-131            
1 52181U 22033AA  23028.26264704  .00033534  00000+0  11083-2 0  9995
2 52181  97.3621 111.6273 0007603 309.7015  50.3555 15.31269736 45947
SPACEBEE-128            
1 52182U 22033AB  23028.21032052  .00034695  00000+0  11475-2 0  9994
2 52182  97.3652 111.6125 0007680 309.0766  50.9792 15.31238687 45938
SPACEBEE-133            
1 52183U 22033AC  23028.19215047  .00034036  00000+0  11231-2 0  9998
2 52183  97.3629 111.5747 0007631 309.7715  50.2854 15.31318450 45938
SPACEBEE-132            
1 52185U 22033AE  23027.74264725  .00036322  00000+0  11728-2 0  9998
2 52185  97.3632 111.2822 0007329 323.2295  36.8443 15.32004544 45899
SPACEBEE-137            
1 52186U 22033AF  23028.21001485  .00034314  00000+0  11347-2 0  9990
2 52186  97.3630 111.5616 0007660 309.5363  50.5200 15.31246842 45930
SPACEBEE-135            
1 52187U 22033AG  23027.80747091  .00035774  00000+0  11559-2 0  9991
2 52187  97.3636 111.3711 0007111 307.0172  53.0418 15.31988042 45881
SPACEBEE-143            
1 52394U 22047A   23028.05160051  .00021584  00000+0  10417-2 0  9995
2 52394  97.4340 113.4067 0008283 112.5407 247.6704 15.18663185 42364
SPACEBEENZ-15           
1 52395U 22047B   23028.48280330  .00025202  00000+0  11408-2 0  9998
2 52395  97.4334 114.1937 0007885 108.0676 252.1419 15.20849779 42459
SPACEBEENZ-16           
1 52396U 22047C   23028.02454389  .00027766  00000+0  12592-2 0  9998
2 52396  97.4335 113.7366 0007955 109.9046 250.3047 15.20764462 42385
